[{"OBJECT_NAME":"NOAA 1","OBJECT_ID":"1970-106A","EPOCH":"2026-03-03T02:21:02.864448","MEAN_MOTION":12.54049108,"ECCENTRICITY":0.0031677,"INCLINATION":101.3527,"RA_OF_ASC_NODE":101.406,"ARG_OF_PERICENTER":193.7893,"MEAN_ANOMALY":188.9981,"EPHEMERIS_TYPE":0,"CLASSIFICATION_TYPE":"U","NORAD_CAT_ID":4793,"ELEMENT_SET_NO":999,"REV_AT_EPOCH":52739,"BSTAR":0.00010845,"MEAN_MOTION_DOT":-2.5e-7,"MEAN_MOTION_DDOT":0},{"OBJECT_NAME":"NOAA 2 (ITOS-D)","OBJECT_ID":"1972-082A","EPOCH":"2026-03-03T12:33:35.681760","MEAN_MOTION":12.53211614,"ECCENTRICITY":0.0004002,"INCLINATION":102.0168,"RA_OF_ASC_NODE":79.9065,"ARG_OF_PERICENTER":16.8959,"MEAN_ANOMALY":105.9498,"EPHEMERIS_TYPE":0,"CLASSIFICATION_TYPE":"U","NORAD_CAT_ID":6235,"ELEMENT_SET_NO":999,"REV_AT_EPOCH":44171,"BSTAR":9.0256e-5,"MEAN_MOTION_DOT":-3.2e-7,"MEAN_MOTION_DDOT":0},{"OBJECT_NAME":"NOAA 3","OBJECT_ID":"1973-086A","EPOCH":"2026-03-03T01:09:23.857920","MEAN_MOTION":12.4039158,"ECCENTRICITY":0.0006194,"INCLINATION":102.2909,"RA_OF_ASC_NODE":74.962,"ARG_OF_PERICENTER":321.4572,"MEAN_ANOMALY":56.1407,"EPHEMERIS_TYPE":0,"CLASSIFICATION_TYPE":"U","NORAD_CAT_ID":6920,"ELEMENT_SET_NO":999,"REV_AT_EPOCH":36874,"BSTAR":0.00012472,"MEAN_MOTION_DOT":-3.0e-7,"MEAN_MOTION_DDOT":0},{"OBJECT_NAME":"NOAA 4","OBJECT_ID":"1974-089A","EPOCH":"2026-03-03T12:04:14.640672","MEAN_MOTION":12.5320152,"ECCENTRICITY":0.0009166,"INCLINATION":102.0074,"RA_OF_ASC_NODE":74.1679,"ARG_OF_PERICENTER":40.4342,"MEAN_ANOMALY":82.5309,"EPHEMERIS_TYPE":0,"CLASSIFICATION_TYPE":"U","NORAD_CAT_ID":7529,"ELEMENT_SET_NO":999,"REV_AT_EPOCH":34628,"BSTAR":2.9409e-5,"MEAN_MOTION_DOT":-4.2e-7,"MEAN_MOTION_DDOT":0},{"OBJECT_NAME":"NOAA 5","OBJECT_ID":"1976-077A","EPOCH":"2026-03-03T11:15:30.197664","MEAN_MOTION":12.37828196,"ECCENTRICITY":0.0009764,"INCLINATION":102.295,"RA_OF_ASC_NODE":47.9435,"ARG_OF_PERICENTER":171.9875,"MEAN_ANOMALY":309.6786,"EPHEMERIS_TYPE":0,"CLASSIFICATION_TYPE":"U","NORAD_CAT_ID":9057,"ELEMENT_SET_NO":999,"REV_AT_EPOCH":24139,"BSTAR":6.2579e-5,"MEAN_MOTION_DOT":-3.8e-7,"MEAN_MOTION_DDOT":0},{"OBJECT_NAME":"TIROS N","OBJECT_ID":"1978-096A","EPOCH":"2026-03-03T01:03:24.035616","MEAN_MOTION":14.19334846,"ECCENTRICITY":0.0010368,"INCLINATION":98.4641,"RA_OF_ASC_NODE":87.8586,"ARG_OF_PERICENTER":184.0267,"MEAN_ANOMALY":176.0828,"EPHEMERIS_TYPE":0,"CLASSIFICATION_TYPE":"U","NORAD_CAT_ID":11060,"ELEMENT_SET_NO":999,"REV_AT_EPOCH":66369,"BSTAR":0.00011456,"MEAN_MOTION_DOT":1.99e-6,"MEAN_MOTION_DDOT":0},{"OBJECT_NAME":"NOAA 6","OBJECT_ID":"1979-057A","EPOCH":"2026-03-03T01:39:17.393184","MEAN_MOTION":14.35427566,"ECCENTRICITY":0.0009371,"INCLINATION":98.576,"RA_OF_ASC_NODE":92.2625,"ARG_OF_PERICENTER":207.0338,"MEAN_ANOMALY":153.036,"EPHEMERIS_TYPE":0,"CLASSIFICATION_TYPE":"U","NORAD_CAT_ID":11416,"ELEMENT_SET_NO":999,"REV_AT_EPOCH":43573,"BSTAR":0.00014555,"MEAN_MOTION_DOT":3.74e-6,"MEAN_MOTION_DDOT":0},{"OBJECT_NAME":"NOAA 7","OBJECT_ID":"1981-059A","EPOCH":"2026-03-03T04:02:35.840832","MEAN_MOTION":14.17771648,"ECCENTRICITY":0.0011011,"INCLINATION":98.8073,"RA_OF_ASC_NODE":130.2744,"ARG_OF_PERICENTER":206.7758,"MEAN_ANOMALY":153.285,"EPHEMERIS_TYPE":0,"CLASSIFICATION_TYPE":"U","NORAD_CAT_ID":12553,"ELEMENT_SET_NO":999,"REV_AT_EPOCH":30972,"BSTAR":5.322e-5,"MEAN_MOTION_DOT":6.4e-7,"MEAN_MOTION_DDOT":0},{"OBJECT_NAME":"NOAA 8","OBJECT_ID":"1983-022A","EPOCH":"2026-03-03T11:10:59.655936","MEAN_MOTION":14.29763981,"ECCENTRICITY":0.0014326,"INCLINATION":98.7374,"RA_OF_ASC_NODE":75.2428,"ARG_OF_PERICENTER":204.0396,"MEAN_ANOMALY":156.0118,"EPHEMERIS_TYPE":0,"CLASSIFICATION_TYPE":"U","NORAD_CAT_ID":13923,"ELEMENT_SET_NO":999,"REV_AT_EPOCH":23596,"BSTAR":9.5267e-5,"MEAN_MOTION_DOT":2.0e-6,"MEAN_MOTION_DDOT":0},{"OBJECT_NAME":"NOAA 9","OBJECT_ID":"1984-123A","EPOCH":"2026-03-03T12:20:46.445280","MEAN_MOTION":14.1703648,"ECCENTRICITY":0.0013719,"INCLINATION":99.1102,"RA_OF_ASC_NODE":86.6515,"ARG_OF_PERICENTER":290.4364,"MEAN_ANOMALY":189.407,"EPHEMERIS_TYPE":0,"CLASSIFICATION_TYPE":"U","NORAD_CAT_ID":15427,"ELEMENT_SET_NO":999,"REV_AT_EPOCH":12845,"BSTAR":9.2741e-5,"MEAN_MOTION_DOT":1.4e-6,"MEAN_MOTION_DDOT":0},{"OBJECT_NAME":"NOAA 10","OBJECT_ID":"1986-073A","EPOCH":"2026-03-03T11:07:24.693600","MEAN_MOTION":14.2914111,"ECCENTRICITY":0.0011214,"INCLINATION":98.6994,"RA_OF_ASC_NODE":55.8689,"ARG_OF_PERICENTER":309.037,"MEAN_ANOMALY":167.6483,"EPHEMERIS_TYPE":0,"CLASSIFICATION_TYPE":"U","NORAD_CAT_ID":16969,"ELEMENT_SET_NO":999,"REV_AT_EPOCH":5431,"BSTAR":0.00010124,"MEAN_MOTION_DOT":2.12e-6,"MEAN_MOTION_DDOT":0},{"OBJECT_NAME":"NOAA 11","OBJECT_ID":"1988-089A","EPOCH":"2026-03-03T10:13:44.221728","MEAN_MOTION":14.15819131,"ECCENTRICITY":0.0010053,"INCLINATION":98.6089,"RA_OF_ASC_NODE":11.6782,"ARG_OF_PERICENTER":239.0844,"MEAN_ANOMALY":120.9343,"EPHEMERIS_TYPE":0,"CLASSIFICATION_TYPE":"U","NORAD_CAT_ID":19531,"ELEMENT_SET_NO":999,"REV_AT_EPOCH":93251,"BSTAR":6.0685e-5,"MEAN_MOTION_DOT":7.7e-7,"MEAN_MOTION_DDOT":0},{"OBJECT_NAME":"NOAA 12","OBJECT_ID":"1991-032A","EPOCH":"2026-03-03T10:36:01.056960","MEAN_MOTION":14.26715059,"ECCENTRICITY":0.0013277,"INCLINATION":98.6145,"RA_OF_ASC_NODE":52.5405,"ARG_OF_PERICENTER":342.1347,"MEAN_ANOMALY":17.9365,"EPHEMERIS_TYPE":0,"CLASSIFICATION_TYPE":"U","NORAD_CAT_ID":21263,"ELEMENT_SET_NO":999,"REV_AT_EPOCH":80988,"BSTAR":8.1694e-5,"MEAN_MOTION_DOT":1.54e-6,"MEAN_MOTION_DDOT":0},{"OBJECT_NAME":"NOAA 13","OBJECT_ID":"1993-050A","EPOCH":"2026-03-03T10:06:27.206208","MEAN_MOTION":14.13633852,"ECCENTRICITY":0.0010553,"INCLINATION":98.6925,"RA_OF_ASC_NODE":10.3435,"ARG_OF_PERICENTER":73.1331,"MEAN_ANOMALY":287.0999,"EPHEMERIS_TYPE":0,"CLASSIFICATION_TYPE":"U","NORAD_CAT_ID":22739,"ELEMENT_SET_NO":999,"REV_AT_EPOCH":67843,"BSTAR":0.00010445,"MEAN_MOTION_DOT":1.54e-6,"MEAN_MOTION_DDOT":0},{"OBJECT_NAME":"NOAA 14","OBJECT_ID":"1994-089A","EPOCH":"2026-03-03T10:59:26.328768","MEAN_MOTION":14.14653607,"ECCENTRICITY":0.0010113,"INCLINATION":98.5011,"RA_OF_ASC_NODE":36.9692,"ARG_OF_PERICENTER":33.4327,"MEAN_ANOMALY":326.7483,"EPHEMERIS_TYPE":0,"CLASSIFICATION_TYPE":"U","NORAD_CAT_ID":23455,"ELEMENT_SET_NO":999,"REV_AT_EPOCH":60825,"BSTAR":7.5781e-5,"MEAN_MOTION_DOT":1.05e-6,"MEAN_MOTION_DDOT":0},{"OBJECT_NAME":"NOAA 15","OBJECT_ID":"1998-030A","EPOCH":"2026-03-03T11:00:36.934848","MEAN_MOTION":14.27109608,"ECCENTRICITY":0.0009203,"INCLINATION":98.5168,"RA_OF_ASC_NODE":85.9027,"ARG_OF_PERICENTER":300.592,"MEAN_ANOMALY":59.4353,"EPHEMERIS_TYPE":0,"CLASSIFICATION_TYPE":"U","NORAD_CAT_ID":25338,"ELEMENT_SET_NO":999,"REV_AT_EPOCH":44621,"BSTAR":9.4424e-5,"MEAN_MOTION_DOT":1.87e-6,"MEAN_MOTION_DDOT":0},{"OBJECT_NAME":"NOAA 16","OBJECT_ID":"2000-055A","EPOCH":"2026-03-03T10:35:36.225600","MEAN_MOTION":14.13896069,"ECCENTRICITY":0.0009368,"INCLINATION":98.4707,"RA_OF_ASC_NODE":82.2697,"ARG_OF_PERICENTER":241.9892,"MEAN_ANOMALY":118.0334,"EPHEMERIS_TYPE":0,"CLASSIFICATION_TYPE":"U","NORAD_CAT_ID":26536,"ELEMENT_SET_NO":999,"REV_AT_EPOCH":60878,"BSTAR":9.5171e-5,"MEAN_MOTION_DOT":1.39e-6,"MEAN_MOTION_DDOT":0}]
