NOAA 1                  
1 04793U 70106A   26062.09794982 -.00000025  00000+0  10845-3 0  9999
2 04793 101.3527 101.4060 0031677 193.7893 188.9981 12.54049108527394
NOAA 2 (ITOS-D)         
1 06235U 72082A   26062.52332965 -.00000032  00000+0  90256-4 0  9997
2 06235 102.0168  79.9065 0004002  16.8959 105.9498 12.53211614441715
NOAA 3                  
1 06920U 73086A   26062.04819280 -.00000030  00000+0  12472-3 0  9991
2 06920 102.2909  74.9620 0006194 321.4572  56.1407 12.40391580368748
NOAA 4                  
1 07529U 74089A   26062.50294723 -.00000042  00000+0  29409-4 0  9993
2 07529 102.0074  74.1679 0009166  40.4342  82.5309 12.53201520346283
NOAA 5                  
1 09057U 76077A   26062.46909951 -.00000038  00000+0  62579-4 0  9991
2 09057 102.2950  47.9435 0009764 171.9875 309.6786 12.37828196241393
TIROS N                 
1 11060U 78096A   26062.04402819  .00000199  00000+0  11456-3 0  9990
2 11060  98.4641  87.8586 0010368 184.0267 176.0828 14.19334846663695
NOAA 6                  
1 11416U 79057A   26062.06895131  .00000374  00000+0  14555-3 0  9996
2 11416  98.5760  92.2625 0009371 207.0338 153.0360 14.35427566435732
NOAA 7                  
1 12553U 81059A   26062.16847038  .00000064  00000+0  53220-4 0  9997
2 12553  98.8073 130.2744 0011011 206.7758 153.2850 14.17771648309724
NOAA 8                  
1 13923U 83022A   26062.46596824  .00000200  00000+0  95267-4 0  9997
2 13923  98.7374  75.2428 0014326 204.0396 156.0118 14.29763981235963
NOAA 9                  
1 15427U 84123A   26062.51442645  .00000140  00000+0  92741-4 0  9995
2 15427  99.1102  86.6515 0013719 290.4364 189.4070 14.17036480128456
NOAA 10                 
1 16969U 86073A   26062.46348025  .00000212  00000+0  10124-3 0  9998
2 16969  98.6994  55.8689 0011214 309.0370 167.6483 14.29141110 54312
NOAA 11                 
1 19531U 88089A   26062.42620627  .00000077  00000+0  60685-4 0  9999
2 19531  98.6089  11.6782 0010053 239.0844 120.9343 14.15819131932511
NOAA 12                 
1 21263U 91032A   26062.44167890  .00000154  00000+0  81694-4 0  9995
2 21263  98.6145  52.5405 0013277 342.1347  17.9365 14.26715059809888
NOAA 13                 
1 22739U 93050A   26062.42114822  .00000154  00000+0  10445-3 0  9996
2 22739  98.6925  10.3435 0010553  73.1331 287.0999 14.13633852678430
NOAA 14                 
1 23455U 94089A   26062.45794362  .00000105  00000+0  75781-4 0  9992
2 23455  98.5011  36.9692 0010113  33.4327 326.7483 14.14653607608259
NOAA 15                 
1 25338U 98030A   26062.45876082  .00000187  00000+0  94424-4 0  9999
2 25338  98.5168  85.9027 0009203 300.5920  59.4353 14.27109608446218
NOAA 16                 
1 26536U 00055A   26062.44139150  .00000139  00000+0  95171-4 0  9994
2 26536  98.4707  82.2697 0009368 241.9892 118.0334 14.13896069608780
